{
"type": "FeatureCollection",
"name": "Public_Features",
"crs": { "type": "name", "properties": { "name": "urn:ogc:def:crs:OGC:1.3:CRS84" } },
"features": [
{"type":"Feature","properties":{"id":null,"Name":"Bridge ","description":null,"timestamp":"2026-09-24T09:05:09-07:00","begin":null,"end":null,"altitudeMode":null,"tessellate":-1,"extrude":0,"visibility":-1,"drawOrder":null,"icon":null,"Description2":null,"pdfmaps_photos":null,"Map View":"Both"},"geometry":{"type":"Point","coordinates":[-120.209176524086004,34.616730072007002,97.972613458477596]}},
{"type":"Feature","properties":{"id":null,"Name":"Butterfly Post","description":null,"timestamp":"2026-09-24T08:41:49-07:00","begin":null,"end":null,"altitudeMode":null,"tessellate":-1,"extrude":0,"visibility":-1,"drawOrder":null,"icon":null,"Description2":null,"pdfmaps_photos":null,"Map View":"Public"},"geometry":{"type":"Point","coordinates":[-120.210332096434001,34.6169501130261,97.0]}},
{"type":"Feature","properties":{"id":null,"Name":"Chumash Hut","description":null,"timestamp":"2026-09-24T08:38:01-07:00","begin":null,"end":null,"altitudeMode":null,"tessellate":-1,"extrude":0,"visibility":-1,"drawOrder":null,"icon":null,"Description2":null,"pdfmaps_photos":null,"Map View":"Public"},"geometry":{"type":"Point","coordinates":[-120.209860360243994,34.6164163374957,96.551843504641496]}},
{"type":"Feature","properties":{"id":null,"Name":"Drain/sewage","description":null,"timestamp":"2026-09-24T08:58:43-07:00","begin":null,"end":null,"altitudeMode":null,"tessellate":-1,"extrude":0,"visibility":-1,"drawOrder":null,"icon":null,"Description2":null,"pdfmaps_photos":null,"Map View":"Public"},"geometry":{"type":"Point","coordinates":[-120.209296024533003,34.617071178917399,98.243776553066894]}},
{"type":"Feature","properties":{"id":null,"Name":"Fountain","description":null,"timestamp":"2026-09-24T08:57:43-07:00","begin":null,"end":null,"altitudeMode":null,"tessellate":-1,"extrude":0,"visibility":-1,"drawOrder":null,"icon":null,"Description2":null,"pdfmaps_photos":null,"Map View":"Public"},"geometry":{"type":"Point","coordinates":[-120.209612671881004,34.616952830650199,97.412665065868893]}},
{"type":"Feature","properties":{"id":null,"Name":"Nature Trail Lookout","description":null,"timestamp":"2026-09-24T08:52:32-07:00","begin":null,"end":null,"altitudeMode":null,"tessellate":-1,"extrude":0,"visibility":-1,"drawOrder":null,"icon":null,"Description2":null,"pdfmaps_photos":null,"Map View":"Public"},"geometry":{"type":"Point","coordinates":[-120.210230021843003,34.617654677028703,98.556837303280602]}},
{"type":"Feature","properties":{"id":null,"Name":"Sea Saw","description":null,"timestamp":"2026-09-24T08:47:43-07:00","begin":null,"end":null,"altitudeMode":null,"tessellate":-1,"extrude":0,"visibility":-1,"drawOrder":null,"icon":null,"Description2":null,"pdfmaps_photos":null,"Map View":"Public"},"geometry":{"type":"Point","coordinates":[-120.210390728912003,34.617512881736097,98.046374249847304]}}
]
}
