{
"type": "FeatureCollection",
"name": "VIP_Trail_Line",
"crs": { "type": "name", "properties": { "name": "urn:ogc:def:crs:OGC:1.3:CRS84" } },
"features": [
{"type":"Feature","properties":{"id":99},"geometry":{"type":"MultiLineString","coordinates":[[[-120.209171090456053,34.616728572763485],[-120.210691275926791,34.617049899044261],[-120.210448046251472,34.617384393113447],[-120.210243221261749,34.617408097366408],[-120.21030722907102,34.617484477691036],[-120.209539135359478,34.617044631410344],[-120.209414320131373,34.617092040103572],[-120.209177491236957,34.616728572763485]]]}}
]
}
