{
"type": "FeatureCollection",
"name": "VIP_Features",
"crs": { "type": "name", "properties": { "name": "urn:ogc:def:crs:OGC:1.3:CRS84" } },
"features": [
{"type":"Feature","properties":{"id":null,"Name":"Bird Feeder","description":null,"timestamp":"2026-09-24T08:56:48-07:00","begin":null,"end":null,"altitudeMode":null,"tessellate":-1,"extrude":0,"visibility":-1,"drawOrder":null,"icon":null,"Description2":"hello","pdfmaps_photos":null,"Map View":"VIP"},"geometry":{"type":"Point","coordinates":[-120.209543695267001,34.617049138290099,97.777363755643606]}},
{"type":"Feature","properties":{"id":null,"Name":"Birdhouse Tree","description":null,"timestamp":"2026-09-24T08:54:32-07:00","begin":null,"end":null,"altitudeMode":null,"tessellate":-1,"extrude":0,"visibility":-1,"drawOrder":null,"icon":null,"Description2":null,"pdfmaps_photos":null,"Map View":"VIP"},"geometry":{"type":"Point","coordinates":[-120.210241915824,34.6174128046557,97.726622620914497]}},
{"type":"Feature","properties":{"id":null,"Name":"Bridge ","description":null,"timestamp":"2026-09-24T09:05:09-07:00","begin":null,"end":null,"altitudeMode":null,"tessellate":-1,"extrude":0,"visibility":-1,"drawOrder":null,"icon":null,"Description2":null,"pdfmaps_photos":null,"Map View":"Both"},"geometry":{"type":"Point","coordinates":[-120.209176524086004,34.616730072007002,97.972613458477596]}},
{"type":"Feature","properties":{"id":null,"Name":"Hydrology Sign","description":null,"timestamp":"2026-09-24T08:43:24-07:00","begin":null,"end":null,"altitudeMode":null,"tessellate":-1,"extrude":0,"visibility":-1,"drawOrder":null,"icon":null,"Description2":null,"pdfmaps_photos":null,"Map View":"VIP"},"geometry":{"type":"Point","coordinates":[-120.21069475697,34.617049381945201,96.688187441663501]}},
{"type":"Feature","properties":{"id":null,"Name":"Oak Terrace","description":null,"timestamp":"2026-09-24T08:59:41-07:00","begin":null,"end":null,"altitudeMode":null,"tessellate":-1,"extrude":0,"visibility":-1,"drawOrder":null,"icon":null,"Description2":null,"pdfmaps_photos":null,"Map View":"VIP"},"geometry":{"type":"Point","coordinates":[-120.209424461839006,34.617089874863197,98.037662778834402]}},
{"type":"Feature","properties":{"id":null,"Name":"Wooden Hut","description":null,"timestamp":"2026-09-24T08:46:12-07:00","begin":null,"end":null,"altitudeMode":null,"tessellate":-1,"extrude":0,"visibility":-1,"drawOrder":null,"icon":null,"Description2":null,"pdfmaps_photos":null,"Map View":"VIP"},"geometry":{"type":"Point","coordinates":[-120.210448861535994,34.6173873950261,97.5946220938567]}},
{"type":"Feature","properties":{"id":null,"Name":"Wooden Train","description":null,"timestamp":"2026-09-24T08:48:23-07:00","begin":null,"end":null,"altitudeMode":null,"tessellate":-1,"extrude":0,"visibility":-1,"drawOrder":null,"icon":null,"Description2":null,"pdfmaps_photos":null,"Map View":"VIP"},"geometry":{"type":"Point","coordinates":[-120.210318215032999,34.6174892493936,97.961297817113504]}}
]
}
